sat12904
1 12904U 81103B   20046.90263406  .00000131  00000-0  73196-5 0  9997
2 12904  81.1751 243.0441 0029105  99.9978 260.4532 15.05761774639112
